{
"type": "FeatureCollection",
"name": "grampians_bbox",
"crs": { "type": "name", "properties": { "name": "urn:ogc:def:crs:OGC:1.3:CRS84" } },
"features": [
{ "type": "Feature", "properties": { "Name": "Grampians National Park BBOX" }, "geometry": { "type": "Polygon", "coordinates": [ [ [ 142.180378484813616, -37.638648203745348 ], [ 142.685085740645178, -37.638648203745348 ], [ 142.685085740645178, -36.868715750995094 ], [ 142.180378484813616, -36.868715750995094 ], [ 142.180378484813616, -37.638648203745348 ] ] ] } }
]
}
