{
"type": "FeatureCollection",
"name": "dangermond_user_polygons",
"crs": { "type": "name", "properties": { "name": "urn:ogc:def:crs:OGC:1.3:CRS84" } },
"features": [
{ "type": "Feature", "properties": { "poly_fid": 0 }, "geometry": { "type": "Polygon", "coordinates": [ [ [ -120.471135208847812, 34.465915053075683 ], [ -120.462144231383746, 34.466550427914846 ], [ -120.451868811768691, 34.456807475804872 ], [ -120.457263402950844, 34.44875810439806 ], [ -120.463942412765419, 34.447910749868811 ], [ -120.471648971597077, 34.454265650819863 ], [ -120.472676520614144, 34.464432486512692 ], [ -120.471135208847812, 34.465915053075683 ] ] ] } },
{ "type": "Feature", "properties": { "poly_fid": 1 }, "geometry": { "type": "Polygon", "coordinates": [ [ [ -120.445189801954115, 34.463373505355555 ], [ -120.445703564703379, 34.459772853424354 ], [ -120.439795210771962, 34.462102702477971 ], [ -120.445189801954115, 34.463373505355555 ] ] ] } },
{ "type": "Feature", "properties": { "poly_fid": 2 }, "geometry": { "type": "Polygon", "coordinates": [ [ [ -120.463171756882275, 34.508897833185756 ], [ -120.473960939246567, 34.505510844480931 ], [ -120.460602919617415, 34.497466151069624 ], [ -120.455722091184541, 34.506780986220491 ], [ -120.463171756882275, 34.508897833185756 ] ] ] } }
]
}
